{
"type": "FeatureCollection",
"name": "places",
"crs": { "type": "name", "properties": { "name": "urn:ogc:def:crs:OGC:1.3:CRS84" } },
"features": [
{ "type": "Feature", "properties": { "id": "67c8157b-4bff-48e8-aa4c-99a1ffade453", "version": 7, "names": { "primary": "Marengo Park District", "common": null, "rules": null }, "categories": { "primary": "park", "alternate": [ "sports_and_recreation_venue", "attractions_and_activities" ] }, "confidence": 0.94694489240646362, "websites": [ "http://www.marengoparkdistrict.org/" ], "socials": [ "https://www.facebook.com/281605541930754" ], "emails": [ "info@marengoparkdistrict.org" ], "phones": [ "+18155685126" ], "brand": { "wikidata": null, "names": { "primary": null, "common": null, "rules": null } }, "addresses": [ { "freeform": "825 Indian Oaks Trl", "locality": "Marengo", "postcode": "60152-8401", "region": "IL", "country": "US" } ], "sources": [ { "property": "", "dataset": "meta", "license": "CDLA-Permissive-2.0", "record_id": "281605541930754", "update_time": "2026-04-06T00:00:00.000Z", "confidence": 0.991555392742157, "between": null }, { "property": "/properties/confidence", "dataset": "Overture", "license": "CDLA-Permissive-2.0", "record_id": null, "update_time": "2026-04-07T10:00:15Z", "confidence": null, "between": null } ] }, "geometry": { "type": "Point", "coordinates": [ -88.62291068, 42.24219858 ] } },
{ "type": "Feature", "properties": { "id": "ff5d6114-783a-4f6c-9634-4f79fe9adafe", "version": 7, "names": { "primary": "Charles H. Hibbard House", "common": null, "rules": null }, "categories": { "primary": "landmark_and_historical_building", "alternate": [ "accommodation" ] }, "confidence": 0.64405333995819092, "websites": [ "http://pdfhost.focus.nps.gov/docs/NRHP/Text/79003113.pdf" ], "socials": [ "https://www.facebook.com/105439406157519" ], "emails": null, "phones": null, "brand": { "wikidata": null, "names": { "primary": null, "common": null, "rules": null } }, "addresses": [ { "freeform": "413 W Grant Hwy", "locality": "Marengo", "postcode": "60152-3040", "region": "IL", "country": "US" } ], "sources": [ { "property": "", "dataset": "meta", "license": "CDLA-Permissive-2.0", "record_id": "105439406157519", "update_time": "2026-04-06T00:00:00.000Z", "confidence": 0.6440533399581909, "between": null }, { "property": "/properties/confidence", "dataset": "Overture", "license": "CDLA-Permissive-2.0", "record_id": null, "update_time": "2026-04-07T10:00:15Z", "confidence": null, "between": null } ] }, "geometry": { "type": "Point", "coordinates": [ -88.61269335, 42.24843411 ] } },
{ "type": "Feature", "properties": { "id": "507ecaa1-921f-475b-a4bf-ad966b6c9bd9", "version": 7, "names": { "primary": "Indian Oaks Park", "common": null, "rules": null }, "categories": { "primary": "park", "alternate": [ "active_life", "sports_and_recreation_venue" ] }, "confidence": 0.997751054763794, "websites": [ "http://marengoparkdistrict.org" ], "socials": [ "https://www.facebook.com/125264144190944" ], "emails": [ "info@marengoparkdistrict.com" ], "phones": [ "+18155685126" ], "brand": { "wikidata": null, "names": { "primary": null, "common": null, "rules": null } }, "addresses": [ { "freeform": "825 Indian Oaks Trl", "locality": "Marengo", "postcode": "60152-8401", "region": "IL", "country": "US" } ], "sources": [ { "property": "", "dataset": "meta", "license": "CDLA-Permissive-2.0", "record_id": "125264144190944", "update_time": "2026-04-06T00:00:00.000Z", "confidence": 0.9902219772338867, "between": null }, { "property": "/properties/confidence", "dataset": "Overture", "license": "CDLA-Permissive-2.0", "record_id": null, "update_time": "2026-04-07T10:00:15Z", "confidence": null, "between": null } ] }, "geometry": { "type": "Point", "coordinates": [ -88.61874, 42.24182 ] } },
{ "type": "Feature", "properties": { "id": "4d70b875-9114-43e5-84bd-34f02369ed38", "version": 3, "names": { "primary": "Marengo Park District", "common": null, "rules": null }, "categories": { "primary": "park", "alternate": null }, "confidence": 0.77, "websites": [ "http://www.marengoparkdistrict.org" ], "socials": null, "emails": [ "info@marengoparkdistrict.com" ], "phones": [ "(815) 568-5126" ], "brand": null, "addresses": [ { "freeform": "825 Indian Oaks Trl", "locality": "Marengo", "postcode": "60152", "region": "IL", "country": "US" } ], "sources": [ { "property": "", "dataset": "Foursquare", "license": "Apache-2.0", "record_id": "4c38aa9b0a71c9b6d10941c9", "update_time": "2025-08-22T00:00:00.000", "confidence": 0.77, "between": null }, { "property": "/properties/confidence", "dataset": "Overture", "license": "CDLA-Permissive-2.0", "record_id": null, "update_time": "2026-04-07T10:00:15Z", "confidence": null, "between": null } ] }, "geometry": { "type": "Point", "coordinates": [ -88.618904992906877, 42.241870847671699 ] } },
{ "type": "Feature", "properties": { "id": "d1b20951-8c2c-4d66-95f6-7558e2583906", "version": 1, "names": { "primary": "Sponable Baseball Fields", "common": null, "rules": null }, "categories": { "primary": "baseball_field", "alternate": [ "stadium_arena", "attractions_and_activities" ] }, "confidence": 0.65071713924407959, "websites": [ "leagueadminpro.com/metro/fieldLocations.php" ], "socials": [ "https://www.facebook.com/347429306028118" ], "emails": null, "phones": null, "brand": { "wikidata": null, "names": { "primary": null, "common": null, "rules": null } }, "addresses": [ { "freeform": null, "locality": "Marengo", "postcode": null, "region": "IL", "country": "US" } ], "sources": [ { "property": "", "dataset": "meta", "license": "CDLA-Permissive-2.0", "record_id": "347429306028118", "update_time": "2026-04-06T00:00:00.000Z", "confidence": 0.6507171392440796, "between": null }, { "property": "/properties/confidence", "dataset": "Overture", "license": "CDLA-Permissive-2.0", "record_id": null, "update_time": "2026-04-07T10:00:15Z", "confidence": null, "between": null } ] }, "geometry": { "type": "Point", "coordinates": [ -88.614321341381, 42.252791605078002 ] } },
{ "type": "Feature", "properties": { "id": "20460f50-e045-42f8-8fa4-fdea7fa952a4", "version": 7, "names": { "primary": "Calvin Spencer Park", "common": null, "rules": null }, "categories": { "primary": "park", "alternate": [ "topic_concert_venue", "farmers_market" ] }, "confidence": 0.94694489240646362, "websites": null, "socials": [ "https://www.facebook.com/129975153772042" ], "emails": null, "phones": null, "brand": { "wikidata": null, "names": { "primary": null, "common": null, "rules": null } }, "addresses": [ { "freeform": "351 Hale St", "locality": "Marengo", "postcode": "60152", "region": "IL", "country": "US" } ], "sources": [ { "property": "", "dataset": "meta", "license": "CDLA-Permissive-2.0", "record_id": "129975153772042", "update_time": "2026-04-06T00:00:00.000Z", "confidence": 0.9697834849357605, "between": null }, { "property": "/properties/confidence", "dataset": "Overture", "license": "CDLA-Permissive-2.0", "record_id": null, "update_time": "2026-04-07T10:00:15Z", "confidence": null, "between": null } ] }, "geometry": { "type": "Point", "coordinates": [ -88.60675697, 42.25294294 ] } },
{ "type": "Feature", "properties": { "id": "60c03694-bbdf-4cae-b733-4a57814d6a5c", "version": 6, "names": { "primary": "Marengo Community Farmers Market", "common": null, "rules": null }, "categories": { "primary": "farmers_market", "alternate": [ "attractions_and_activities" ] }, "confidence": 0.72420883178710938, "websites": null, "socials": [ "https://www.facebook.com/1865385007058791" ], "emails": null, "phones": null, "brand": { "wikidata": null, "names": { "primary": null, "common": null, "rules": null } }, "addresses": [ { "freeform": null, "locality": "Marengo", "postcode": null, "region": "IL", "country": "US" } ], "sources": [ { "property": "", "dataset": "meta", "license": "CDLA-Permissive-2.0", "record_id": "1865385007058791", "update_time": "2026-04-06T00:00:00.000Z", "confidence": 0.7242088317871094, "between": null }, { "property": "/properties/confidence", "dataset": "Overture", "license": "CDLA-Permissive-2.0", "record_id": null, "update_time": "2026-04-07T10:00:15Z", "confidence": null, "between": null } ] }, "geometry": { "type": "Point", "coordinates": [ -88.606774022716195, 42.253089750796939 ] } },
{ "type": "Feature", "properties": { "id": "c270b8cc-3d3d-4eae-b8cb-a59a9103aab4", "version": 7, "names": { "primary": "Orson Rogers House", "common": null, "rules": null }, "categories": { "primary": "landmark_and_historical_building", "alternate": [ "museum", "fountain" ] }, "confidence": 0.4666200578212738, "websites": [ "http://en.wikipedia.org/wiki/Orson_Rogers_House" ], "socials": [ "https://www.facebook.com/109750305718325" ], "emails": null, "phones": null, "brand": { "wikidata": null, "names": { "primary": null, "common": null, "rules": null } }, "addresses": [ { "freeform": "", "locality": "Marengo", "postcode": "60152", "region": "IL", "country": "US" } ], "sources": [ { "property": "", "dataset": "meta", "license": "CDLA-Permissive-2.0", "record_id": "109750305718325", "update_time": "2026-04-06T00:00:00.000Z", "confidence": 0.4666200578212738, "between": null }, { "property": "/properties/confidence", "dataset": "Overture", "license": "CDLA-Permissive-2.0", "record_id": null, "update_time": "2026-04-07T10:00:15Z", "confidence": null, "between": null } ] }, "geometry": { "type": "Point", "coordinates": [ -88.60472, 42.250611 ] } },
{ "type": "Feature", "properties": { "id": "1ee8ff2c-96d5-4458-b843-50c80b57ed76", "version": 6, "names": { "primary": "Northern Illinois Fire Museum NFP", "common": null, "rules": null }, "categories": { "primary": "museum", "alternate": [ "community_services_non_profits", "history_museum" ] }, "confidence": 0.80705219507217407, "websites": [ "http://n-i-f-m.org/" ], "socials": [ "https://www.facebook.com/1667038346898714" ], "emails": [ "contact@northernillinoisfiremuseum.com" ], "phones": [ "+12243330187" ], "brand": { "wikidata": null, "names": { "primary": null, "common": null, "rules": null } }, "addresses": [ { "freeform": "9114 Virigina Road", "locality": "Marengo", "postcode": "60102", "region": "IL", "country": "US" } ], "sources": [ { "property": "", "dataset": "meta", "license": "CDLA-Permissive-2.0", "record_id": "1667038346898714", "update_time": "2026-04-06T00:00:00.000Z", "confidence": 0.8070521950721741, "between": null }, { "property": "/properties/confidence", "dataset": "Overture", "license": "CDLA-Permissive-2.0", "record_id": null, "update_time": "2026-04-07T10:00:15Z", "confidence": null, "between": null } ] }, "geometry": { "type": "Point", "coordinates": [ -88.6075668, 42.2499695 ] } },
{ "type": "Feature", "properties": { "id": "cbc135e5-33ea-4049-ba92-a8e15e754b96", "version": 7, "names": { "primary": "Root & Sky Farm", "common": null, "rules": null }, "categories": { "primary": "farm", "alternate": [ "attractions_and_activities", "urban_farm" ] }, "confidence": 0.7465173602104187, "websites": [ "http://rootandskyfarm.com/" ], "socials": [ "https://www.facebook.com/1821319188194183" ], "emails": [ "rootandskyfarm@gmail.com" ], "phones": [ "+18159000078" ], "brand": { "wikidata": null, "names": { "primary": null, "common": null, "rules": null } }, "addresses": [ { "freeform": "6207 S IL Route 23", "locality": "Marengo", "postcode": "60152-3563", "region": "IL", "country": "US" } ], "sources": [ { "property": "", "dataset": "meta", "license": "CDLA-Permissive-2.0", "record_id": "1821319188194183", "update_time": "2026-04-06T00:00:00.000Z", "confidence": 0.7465173602104187, "between": null }, { "property": "/properties/confidence", "dataset": "Overture", "license": "CDLA-Permissive-2.0", "record_id": null, "update_time": "2026-04-07T10:00:15Z", "confidence": null, "between": null } ] }, "geometry": { "type": "Point", "coordinates": [ -88.61108024, 42.23864233 ] } },
{ "type": "Feature", "properties": { "id": "44752dc1-406b-49c2-878d-5245edadec88", "version": 8, "names": { "primary": "Prospect Street Apartments", "common": null, "rules": null }, "categories": { "primary": "landmark_and_historical_building", "alternate": [ "accommodation", "property_management" ] }, "confidence": 0.87883681058883667, "websites": null, "socials": [ "https://www.facebook.com/647288765453473" ], "emails": [ "harirajinc@gmail.com" ], "phones": [ "+16305036080" ], "brand": { "wikidata": null, "names": { "primary": null, "common": null, "rules": null } }, "addresses": [ { "freeform": "230 S Prospect St", "locality": "Marengo", "postcode": "60152-3433", "region": "IL", "country": "US" } ], "sources": [ { "property": "", "dataset": "meta", "license": "CDLA-Permissive-2.0", "record_id": "647288765453473", "update_time": "2026-04-06T00:00:00.000Z", "confidence": 0.8788368105888367, "between": null }, { "property": "/properties/confidence", "dataset": "Overture", "license": "CDLA-Permissive-2.0", "record_id": null, "update_time": "2026-04-07T10:00:15Z", "confidence": null, "between": null } ] }, "geometry": { "type": "Point", "coordinates": [ -88.59639857, 42.24561236 ] } },
{ "type": "Feature", "properties": { "id": "6b357184-2698-4a8f-8d21-b5c24a452a4a", "version": 6, "names": { "primary": "H.U.M Trail", "common": null, "rules": null }, "categories": { "primary": "mountain_bike_trails", "alternate": [ "hiking_trail", "active_life" ] }, "confidence": 0.71620386838912964, "websites": [ "http://mccdistrict.org/web/assets/maps/HUM%20Trail%20SquareFold-map_0310-web.pdf" ], "socials": [ "https://www.facebook.com/207619692680411" ], "emails": null, "phones": [ "+18153386223" ], "brand": { "wikidata": null, "names": { "primary": null, "common": null, "rules": null } }, "addresses": [ { "freeform": "111 N Prospect St", "locality": "Marengo", "postcode": "60152", "region": "IL", "country": "US" } ], "sources": [ { "property": "", "dataset": "meta", "license": "CDLA-Permissive-2.0", "record_id": "207619692680411", "update_time": "2026-04-06T00:00:00.000Z", "confidence": 0.7162038683891296, "between": null }, { "property": "/properties/confidence", "dataset": "Overture", "license": "CDLA-Permissive-2.0", "record_id": null, "update_time": "2026-04-07T10:00:15Z", "confidence": null, "between": null } ] }, "geometry": { "type": "Point", "coordinates": [ -88.5952335, 42.24749906 ] } },
{ "type": "Feature", "properties": { "id": "7e913740-32b5-409f-bb07-410642a909bd", "version": 8, "names": { "primary": "Sunnyside Garden Apartments", "common": null, "rules": null }, "categories": { "primary": "landmark_and_historical_building", "alternate": [ "accommodation" ] }, "confidence": 0.9513581395149231, "websites": [ "www.apartments.com/sunnyside-garden-apartments-marengo-il/4ss3pxl" ], "socials": [ "https://www.facebook.com/159720370717405" ], "emails": null, "phones": [ "+18155686672" ], "brand": { "wikidata": null, "names": { "primary": null, "common": null, "rules": null } }, "addresses": [ { "freeform": "610 E Grant Hwy", "locality": "Marengo", "postcode": "60152-3480", "region": "IL", "country": "US" } ], "sources": [ { "property": "", "dataset": "meta", "license": "CDLA-Permissive-2.0", "record_id": "159720370717405", "update_time": "2026-04-06T00:00:00.000Z", "confidence": 0.9513581395149231, "between": null }, { "property": "/properties/confidence", "dataset": "Overture", "license": "CDLA-Permissive-2.0", "record_id": null, "update_time": "2026-04-07T10:00:15Z", "confidence": null, "between": null } ] }, "geometry": { "type": "Point", "coordinates": [ -88.60057853, 42.24613058 ] } },
{ "type": "Feature", "properties": { "id": "bf3ecaed-9f29-4c3f-9db9-0a39d663be4c", "version": 7, "names": { "primary": "Renwick Park", "common": null, "rules": null }, "categories": { "primary": "park", "alternate": [ "attractions_and_activities" ] }, "confidence": 0.90663111209869385, "websites": null, "socials": [ "https://www.facebook.com/244163426278670" ], "emails": null, "phones": [ "+18155685126" ], "brand": { "wikidata": null, "names": { "primary": null, "common": null, "rules": null } }, "addresses": [ { "freeform": "", "locality": "Marengo", "postcode": "60152", "region": "IL", "country": "US" } ], "sources": [ { "property": "", "dataset": "meta", "license": "CDLA-Permissive-2.0", "record_id": "244163426278670", "update_time": "2026-04-06T00:00:00.000Z", "confidence": 0.9066311120986938, "between": null }, { "property": "/properties/confidence", "dataset": "Overture", "license": "CDLA-Permissive-2.0", "record_id": null, "update_time": "2026-04-07T10:00:15Z", "confidence": null, "between": null } ] }, "geometry": { "type": "Point", "coordinates": [ -88.59658602, 42.25555871 ] } },
{ "type": "Feature", "properties": { "id": "9fc3b127-007a-4bba-a0fb-bb6868e1b569", "version": 3, "names": { "primary": "Coral Woods Conservation Area", "common": null, "rules": null }, "categories": { "primary": "park", "alternate": null }, "confidence": 0.77, "websites": [ "https://www.discovertheforest.org" ], "socials": null, "emails": null, "phones": [ "(815) 338-6223" ], "brand": null, "addresses": [ { "freeform": "7400 Somerset Dr.", "locality": "Marengo", "postcode": "60152", "region": "IL", "country": "US" } ], "sources": [ { "property": "", "dataset": "Foursquare", "license": "Apache-2.0", "record_id": "4db8bd7ecda10f31e61e7a1c", "update_time": "2026-01-13T00:00:00.000", "confidence": 0.77, "between": null }, { "property": "/properties/confidence", "dataset": "Overture", "license": "CDLA-Permissive-2.0", "record_id": null, "update_time": "2026-04-07T10:00:15Z", "confidence": null, "between": null } ] }, "geometry": { "type": "Point", "coordinates": [ -88.578140665831214, 42.219308367187686 ] } },
{ "type": "Feature", "properties": { "id": "ab54915f-6f51-4bc0-a1aa-f1deec3af2f1", "version": 7, "names": { "primary": "Coral Woods Conservation Area", "common": null, "rules": null }, "categories": { "primary": "nature_reserve", "alternate": [ "park", "environmental_conservation_organization" ] }, "confidence": 0.97076451778411865, "websites": [ "http://www.mccdistrict.org/coralwoods" ], "socials": [ "https://www.facebook.com/180221792027408" ], "emails": [ "mccd@mccdistrict.org" ], "phones": [ "+18153386223" ], "brand": { "wikidata": null, "names": { "primary": "McHenry County Conservation District", "common": null, "rules": null } }, "addresses": [ { "freeform": "7501 Somerset Dr", "locality": "Marengo", "postcode": "60152", "region": "IL", "country": "US" } ], "sources": [ { "property": "", "dataset": "meta", "license": "CDLA-Permissive-2.0", "record_id": "180221792027408", "update_time": "2026-04-06T00:00:00.000Z", "confidence": 0.9707645177841187, "between": null }, { "property": "/properties/confidence", "dataset": "Overture", "license": "CDLA-Permissive-2.0", "record_id": null, "update_time": "2026-04-07T10:00:15Z", "confidence": null, "between": null } ] }, "geometry": { "type": "Point", "coordinates": [ -88.57727326, 42.21990707 ] } },
{ "type": "Feature", "properties": { "id": "3e58554c-9ab9-4b17-b7dc-8ae29779d834", "version": 6, "names": { "primary": "Rancho Tercia De Ases", "common": null, "rules": null }, "categories": { "primary": "farm", "alternate": [ "landmark_and_historical_building", "livestock_breeder" ] }, "confidence": 0.96938860416412354, "websites": null, "socials": [ "https://www.facebook.com/1484096938282926" ], "emails": null, "phones": [ "+12245654333" ], "brand": { "wikidata": null, "names": { "primary": null, "common": null, "rules": null } }, "addresses": [ { "freeform": "19701 W Coral Rd", "locality": "Marengo", "postcode": "60152-9426", "region": "IL", "country": "US" } ], "sources": [ { "property": "", "dataset": "meta", "license": "CDLA-Permissive-2.0", "record_id": "1484096938282926", "update_time": "2026-04-06T00:00:00.000Z", "confidence": 0.9693886041641235, "between": null }, { "property": "/properties/confidence", "dataset": "Overture", "license": "CDLA-Permissive-2.0", "record_id": null, "update_time": "2026-04-07T10:00:15Z", "confidence": null, "between": null } ] }, "geometry": { "type": "Point", "coordinates": [ -88.58107005, 42.21208283 ] } },
{ "type": "Feature", "properties": { "id": "f87f836f-f6c0-49fa-b81e-0e88850d81d6", "version": 7, "names": { "primary": "Shady Oak Stables", "common": null, "rules": null }, "categories": { "primary": "horse_boarding", "alternate": [ "equestrian_facility", "attractions_and_activities" ] }, "confidence": 0.30924335122108459, "websites": null, "socials": [ "https://www.facebook.com/780108168511588" ], "emails": [ "h_burroughs@hotmail.com" ], "phones": [ "+15635065742" ], "brand": { "wikidata": null, "names": { "primary": null, "common": null, "rules": null } }, "addresses": [ { "freeform": "19112 Harmony Rd", "locality": "Marengo", "postcode": "60152-8216", "region": "IL", "country": "US" } ], "sources": [ { "property": "", "dataset": "meta", "license": "CDLA-Permissive-2.0", "record_id": "780108168511588", "update_time": "2026-04-06T00:00:00.000Z", "confidence": 0.3092433512210846, "between": null }, { "property": "/properties/confidence", "dataset": "Overture", "license": "CDLA-Permissive-2.0", "record_id": null, "update_time": "2026-04-07T10:00:15Z", "confidence": null, "between": null } ] }, "geometry": { "type": "Point", "coordinates": [ -88.56808108, 42.17132652 ] } },
{ "type": "Feature", "properties": { "id": "ec96f32c-e7df-4c4b-8b41-b09ee05d4d08", "version": 7, "names": { "primary": "Burlington Prairie Nature Preserve", "common": null, "rules": null }, "categories": { "primary": "nature_reserve", "alternate": [ "park", "public_plaza" ] }, "confidence": 0.6367829442024231, "websites": null, "socials": [ "https://www.facebook.com/2049374225302242" ], "emails": null, "phones": null, "brand": { "wikidata": null, "names": { "primary": null, "common": null, "rules": null } }, "addresses": [ { "freeform": null, "locality": "Sycamore", "postcode": null, "region": "IL", "country": "US" } ], "sources": [ { "property": "", "dataset": "meta", "license": "CDLA-Permissive-2.0", "record_id": "2049374225302242", "update_time": "2026-04-06T00:00:00.000Z", "confidence": 0.6367829442024231, "between": null }, { "property": "/properties/confidence", "dataset": "Overture", "license": "CDLA-Permissive-2.0", "record_id": null, "update_time": "2026-04-07T10:00:15Z", "confidence": null, "between": null } ] }, "geometry": { "type": "Point", "coordinates": [ -88.5778379, 42.0620546 ] } },
{ "type": "Feature", "properties": { "id": "f3f171db-2c33-42a3-85cb-bb1bc123d8d3", "version": 1, "names": { "primary": "Burlington Prairie Forest Preserve", "common": null, "rules": null }, "categories": { "primary": "nature_reserve", "alternate": [ "park", "wildlife_sanctuary" ] }, "confidence": 0.70021355152130127, "websites": null, "socials": [ "https://www.facebook.com/145799202111090" ], "emails": null, "phones": [ "+16302321242" ], "brand": { "wikidata": null, "names": { "primary": null, "common": null, "rules": null } }, "addresses": [ { "freeform": "12N882 Engel Rd", "locality": "Burlington", "postcode": "60178", "region": null, "country": "US" } ], "sources": [ { "property": "", "dataset": "meta", "license": "CDLA-Permissive-2.0", "record_id": "145799202111090", "update_time": "2026-04-06T00:00:00.000Z", "confidence": 0.7002135515213013, "between": null }, { "property": "/properties/confidence", "dataset": "Overture", "license": "CDLA-Permissive-2.0", "record_id": null, "update_time": "2026-04-07T10:00:15Z", "confidence": null, "between": null } ] }, "geometry": { "type": "Point", "coordinates": [ -88.58793407, 42.05715503 ] } }
]
}
